[{"OBJECT_NAME":"STARLINK-30554","OBJECT_ID":"2023-156W","EPOCH":"2026-03-09T13:13:19.079328","MEAN_MOTION":15.30186563,"ECCENTRICITY":0.00010802,"INCLINATION":53.1575,"RA_OF_ASC_NODE":168.6728,"ARG_OF_PERICENTER":101.2565,"MEAN_ANOMALY":258.8557,"EPHEMERIS_TYPE":0,"CLASSIFICATION_TYPE":"U","NORAD_CAT_ID":58048,"ELEMENT_SET_NO":999,"REV_AT_EPOCH":13496,"BSTAR":7.5244718e-5,"MEAN_MOTION_DOT":1.869e-5,"MEAN_MOTION_DDOT":0},{"OBJECT_NAME":"OKEAN-1","OBJECT_ID":"1988-056A","EPOCH":"2026-03-09T21:19:04.260000","MEAN_MOTION":15.31672069,"ECCENTRICITY":0.00129431,"INCLINATION":82.4671,"RA_OF_ASC_NODE":262.7586,"ARG_OF_PERICENTER":168.0696,"MEAN_ANOMALY":192.0855,"EPHEMERIS_TYPE":0,"CLASSIFICATION_TYPE":"U","NORAD_CAT_ID":19274,"ELEMENT_SET_NO":999,"REV_AT_EPOCH":3511,"BSTAR":0.00038371192,"MEAN_MOTION_DOT":0.00011798,"MEAN_MOTION_DDOT":0}]
